NAVSTAR 43 (USA 132)    
1 24876U 97035A   22231.18348077 -.00000021  00000+0  00000+0 0  9991
2 24876  55.5175 153.2270 0061170  51.7206 308.8357  2.00563106183912
NAVSTAR 47 (USA 150)    
1 26360U 00025A   22231.22793340 -.00000059  00000+0  00000+0 0  9997
2 26360  54.1092  76.2730 0047794 184.5031 298.3225  2.00567852163239
NAVSTAR 49 (USA 154)    
1 26605U 00071A   22231.18428031 -.00000025  00000+0  00000+0 0  9990
2 26605  55.1018 150.1927 0136689 254.5877 323.5100  2.00556990159473
NAVSTAR 51 (USA 166)    
1 27663U 03005A   22231.09943409  .00000011  00000+0  00000+0 0  9990
2 27663  55.4708 270.5726 0125501  41.1079 327.2392  2.00560990143276
NAVSTAR 52 (USA 168)    
1 27704U 03010A   22231.30837787 -.00000093  00000+0  00000+0 0  9998
2 27704  55.0473  20.7638 0244332 307.6400  67.0449  2.00559128142076
NAVSTAR 54 (USA 177)    
1 28190U 04009A   22231.48179848 -.00000106  00000+0  00000+0 0  9998
2 28190  55.9643 331.5572 0090201 124.0843 315.2046  2.00559218134915
NAVSTAR 56 (USA 180)    
1 28474U 04045A   22231.51285981 -.00000092  00000+0  00000+0 0  9997
2 28474  55.3735  20.9174 0201675 279.6794  74.5641  2.00422929130396
NAVSTAR 57 (USA 183)    
1 28874U 05038A   22231.36157045 -.00000104  00000+0  00000+0 0  9990
2 28874  56.0278 328.9992 0138757 274.7315 103.1276  2.00572538123807
NAVSTAR 58 (USA 190)    
1 29486U 06042A   22231.01554920  .00000060  00000+0  00000+0 0  9991
2 29486  54.7122 206.7866 0103630  22.4415  18.0215  2.00576085116354
NAVSTAR 59 (USA 192)    
1 29601U 06052A   22230.40207479  .00000006  00000+0  00000+0 0  9997
2 29601  55.4799 269.5408 0082647  74.9882 285.9855  2.00554542115352
NAVSTAR 60 (USA 196)    
1 32260U 07047A   22231.21041699 -.00000041  00000+0  00000+0 0  9997
2 32260  53.3288 137.9435 0142229  63.7888 297.6958  2.00571257108774
NAVSTAR 61 (USA 199)    
1 32384U 07062A   22231.52842209 -.00000104  00000+0  00000+0 0  9991
2 32384  56.1487 329.7619 0021077 143.0247 215.4164  2.00565816107473
NAVSTAR 62 (USA 201)    
1 32711U 08012A   22231.12596829  .00000059  00000+0  00000+0 0  9999
2 32711  54.4731 205.7028 0165669 231.7731 126.7092  2.00566914105715
NAVSTAR 64 (USA 206)    
1 35752U 09043A   22231.11090955 -.00000056  00000+0  00000+0 0  9998
2 35752  55.1187  83.0050 0059206  61.3999 301.1626  2.00552273 95320
NAVSTAR 65 (USA 213)    
1 36585U 10022A   22231.44875088  .00000026  00000+0  00000+0 0  9992
2 36585  54.7650 264.9742 0102706  56.8601 309.7093  2.00568596 89562
NAVSTAR 66 (USA 232)    
1 37753U 11036A   22231.34242295 -.00000084  00000+0  00000+0 0  9998
2 37753  56.6345  26.2574 0118502  53.2213 320.6999  2.00565856 81245
NAVSTAR 67 (USA 239)    
1 38833U 12053A   22231.30737116  .00000051  00000+0  00000+0 0  9998
2 38833  53.5287 200.7764 0126618  46.8106 314.2197  2.00562625 71409
